STARLINK - 2019-029AC              
1 44261U 19029AC  19146.90715883  .00002127  00000-0  58185-4 0  9993
2 44261  53.0007 162.0140 0004097 276.0123 200.5592 15.42251837   538